start=new Date('2023-05-18T00:00:00.000Z').valueOf();
sats=[{"OBJECT_TYPE":"PAYLOAD","TIME_SYSTEM":"UTC","PERIAPSIS":"539.232","OBJECT_NAME":"STARLINK-4739","OBJECT_ID":"2022-111V","TLE_LINE2":"2 53792  53.2147 204.6970 0000711  86.8635 273.2438 15.08847203 38630","SEMIMAJOR_AXIS":"6917.858","COUNTRY_CODE":"US","ARG_OF_PERICENTER":"86.8635","ECCENTRICITY":"0.00007110","INCLINATION":"53.2147","REV_AT_EPOCH":"3863","MEAN_ANOMALY":"273.2438","CENTER_NAME":"EARTH","MEAN_ELEMENT_THEORY":"SGP4","NORAD_CAT_ID":"53792","REF_FRAME":"TEME","BSTAR":"0.00013045000000","TLE_LINE1":"1 53792U 22111V   23137.60208509  .00001789  00000-0  13045-3 0  9990","EPOCH":"2023-05-17T14:27:00.151776","EPHEMERIS_TYPE":"0","APOAPSIS":"540.215","ELEMENT_SET_NO":"999","MEAN_MOTION":"15.08847203","MEAN_MOTION_DOT":"0.00001789","RA_OF_ASC_NODE":"204.6970","DECAY_DATE":null,"RCS_SIZE":"LARGE","FILE":"3910633","LAUNCH_DATE":"2022-09-11","SITE":"AFETR","CLASSIFICATION_TYPE":"U","MEAN_MOTION_DDOT":"0.0000000000000","GP_ID":"232045206","PERIOD":"95.437"},{"FILE":"3910633","RCS_SIZE":"LARGE","DECAY_DATE":null,"RA_OF_ASC_NODE":"204.6786","MEAN_MOTION_DOT":"0.00002183","MEAN_MOTION":"15.08845659","GP_ID":"232044957","MEAN_MOTION_DDOT":"0.0000000000000","PERIOD":"95.437","CLASSIFICATION_TYPE":"U","SITE":"AFETR","LAUNCH_DATE":"2022-09-11","CENTER_NAME":"EARTH","REV_AT_EPOCH":"3863","MEAN_ANOMALY":"287.0477","COUNTRY_CODE":"US","ARG_OF_PERICENTER":"73.0576","INCLINATION":"53.2155","ECCENTRICITY":"0.00005640","SEMIMAJOR_AXIS":"6917.863","TLE_LINE2":"2 53793  53.2155 204.6786 0000564  73.0576 287.0477 15.08845659 38632","OBJECT_ID":"2022-111W","OBJECT_TYPE":"PAYLOAD","OBJECT_NAME":"STARLINK-4728","PERIAPSIS":"539.338","TIME_SYSTEM":"UTC","ELEMENT_SET_NO":"999","APOAPSIS":"540.118","REF_FRAME":"TEME","NORAD_CAT_ID":"53793","EPHEMERIS_TYPE":"0","EPOCH":"2023-05-17T14:23:04.789536","BSTAR":"0.00015516000000","TLE_LINE1":"1 53793U 22111W   23137.59936099  .00002183  00000-0  15516-3 0  9995","MEAN_ELEMENT_THEORY":"SGP4"},{"LAUNCH_DATE":"2022-09-11","CLASSIFICATION_TYPE":"U","SITE":"AFETR","PERIOD":"95.438","MEAN_MOTION_DDOT":"0.0000000000000","GP_ID":"232044205","MEAN_MOTION":"15.08839001","MEAN_MOTION_DOT":"0.00000609","DECAY_DATE":null,"RCS_SIZE":"LARGE","RA_OF_ASC_NODE":"203.5302","FILE":"3910633","MEAN_ELEMENT_THEORY":"SGP4","EPOCH":"2023-05-17T20:55:14.578464","EPHEMERIS_TYPE":"0","BSTAR":"0.00005637700000","TLE_LINE1":"1 53794U 22111X   23137.87169651  .00000609  00000-0  56377-4 0  9991","REF_FRAME":"TEME","NORAD_CAT_ID":"53794","APOAPSIS":"540.581","ELEMENT_SET_NO":"999","OBJECT_NAME":"STARLINK-4730","PERIAPSIS":"538.916","TIME_SYSTEM":"UTC","OBJECT_TYPE":"PAYLOAD","SEMIMAJOR_AXIS":"6917.883","TLE_LINE2":"2 53794  53.2152 203.5302 0001203  89.5517 270.5613 15.08839001 38677","OBJECT_ID":"2022-111X","INCLINATION":"53.2152","ECCENTRICITY":"0.00012030","COUNTRY_CODE":"US","ARG_OF_PERICENTER":"89.5517","CENTER_NAME":"EARTH","MEAN_ANOMALY":"270.5613","REV_AT_EPOCH":"3867"},{"ELEMENT_SET_NO":"999","APOAPSIS":"540.517","REF_FRAME":"TEME","NORAD_CAT_ID":"53795","EPOCH":"2023-05-17T14:11:05.368704","EPHEMERIS_TYPE":"0","TLE_LINE1":"1 53795U 22111Y   23137.59103436  .00001556  00000-0  11580-3 0  9998","BSTAR":"0.00011580000000","MEAN_ELEMENT_THEORY":"SGP4","CENTER_NAME":"EARTH","REV_AT_EPOCH":"3863","MEAN_ANOMALY":"266.1669","COUNTRY_CODE":"US","ARG_OF_PERICENTER":"93.9453","INCLINATION":"53.2160","ECCENTRICITY":"0.00011390","TLE_LINE2":"2 53795  53.2160 204.6279 0001139  93.9453 266.1669 15.08845389 38632","SEMIMAJOR_AXIS":"6917.864","OBJECT_ID":"2022-111Y","OBJECT_TYPE":"PAYLOAD","OBJECT_NAME":"STARLINK-4742","PERIAPSIS":"538.941","TIME_SYSTEM":"UTC","MEAN_MOTION_DDOT":"0.0000000000000","GP_ID":"232044455","PERIOD":"95.437","CLASSIFICATION_TYPE":"U","SITE":"AFETR","LAUNCH_DATE":"2022-09-11","FILE":"3910633","DECAY_DATE":null,"RCS_SIZE":"LARGE","RA_OF_ASC_NODE":"204.6279","MEAN_MOTION_DOT":"0.00001556","MEAN_MOTION":"15.08845389"},{"REV_AT_EPOCH":"3898","MEAN_ANOMALY":"273.0066","CENTER_NAME":"EARTH","ECCENTRICITY":"0.00011740","INCLINATION":"53.2163","ARG_OF_PERICENTER":"87.1061","COUNTRY_CODE":"US","OBJECT_ID":"2022-111Z","TLE_LINE2":"2 53796  53.2163 183.3990 0001174  87.1061 273.0066 15.08840182 38980","SEMIMAJOR_AXIS":"6917.880","PERIAPSIS":"538.933","TIME_SYSTEM":"UTC","OBJECT_NAME":"STARLINK-4721","OBJECT_TYPE":"PAYLOAD","ELEMENT_SET_NO":"999","APOAPSIS":"540.557","TLE_LINE1":"1 53796U 22111Z   23137.86151317  .00000217  00000-0  31692-4 0  9990","BSTAR":"0.00003169200000","EPOCH":"2023-05-17T20:40:34.737888","EPHEMERIS_TYPE":"0","NORAD_CAT_ID":"53796","REF_FRAME":"TEME","MEAN_ELEMENT_THEORY":"SGP4","FILE":"3910633","RA_OF_ASC_NODE":"183.3990","DECAY_DATE":null,"RCS_SIZE":"LARGE","MEAN_MOTION_DOT":"0.00000217","MEAN_MOTION":"15.08840182","PERIOD":"95.438","MEAN_MOTION_DDOT":"0.0000000000000","GP_ID":"232044707","SITE":"AFETR","CLASSIFICATION_TYPE":"U","LAUNCH_DATE":"2022-09-11"},{"OBJECT_ID":"2022-111AA","SEMIMAJOR_AXIS":"6917.848","TLE_LINE2":"2 53797  53.2155 204.5605 0000803  82.1567 277.9516 15.08850517 38622","OBJECT_TYPE":"PAYLOAD","TIME_SYSTEM":"UTC","PERIAPSIS":"539.158","OBJECT_NAME":"STARLINK-4723","REV_AT_EPOCH":"3862","MEAN_ANOMALY":"277.9516","CENTER_NAME":"EARTH","ARG_OF_PERICENTER":"82.1567","COUNTRY_CODE":"US","ECCENTRICITY":"0.00008030","INCLINATION":"53.2155","NORAD_CAT_ID":"53797","REF_FRAME":"TEME","BSTAR":"0.00033466000000","TLE_LINE1":"1 53797U 22111AA  23137.57998068  .00005044  00000-0  33466-3 0  9994","EPHEMERIS_TYPE":"0","EPOCH":"2023-05-17T13:55:10.330752","MEAN_ELEMENT_THEORY":"SGP4","ELEMENT_SET_NO":"999","APOAPSIS":"540.269","MEAN_MOTION_DOT":"0.00005044","MEAN_MOTION":"15.08850517","FILE":"3910633","RA_OF_ASC_NODE":"204.5605","DECAY_DATE":null,"RCS_SIZE":"LARGE","LAUNCH_DATE":"2022-09-11","MEAN_MOTION_DDOT":"0.0000000000000","GP_ID":"232045457","PERIOD":"95.437","SITE":"AFETR","CLASSIFICATION_TYPE":"U"},{"GP_ID":"232043707","MEAN_MOTION_DDOT":"0.0000000000000","PERIOD":"95.437","SITE":"AFETR","CLASSIFICATION_TYPE":"U","LAUNCH_DATE":"2022-09-11","FILE":"3910633","DECAY_DATE":null,"RCS_SIZE":"LARGE","RA_OF_ASC_NODE":"204.5816","MEAN_MOTION_DOT":"0.00001211","MEAN_MOTION":"15.08848229","ELEMENT_SET_NO":"999","APOAPSIS":"540.464","REF_FRAME":"TEME","NORAD_CAT_ID":"53798","EPOCH":"2023-05-17T14:00:28.382112","EPHEMERIS_TYPE":"0","TLE_LINE1":"1 53798U 22111AB  23137.58366183  .00001211  00000-0  94135-4 0  9996","BSTAR":"0.00009413500000","MEAN_ELEMENT_THEORY":"SGP4","CENTER_NAME":"EARTH","REV_AT_EPOCH":"3862","MEAN_ANOMALY":"265.4889","COUNTRY_CODE":"US","ARG_OF_PERICENTER":"94.6226","INCLINATION":"53.2159","ECCENTRICITY":"0.00010750","SEMIMAJOR_AXIS":"6917.855","TLE_LINE2":"2 53798  53.2159 204.5816 0001075  94.6226 265.4889 15.08848229 38625","OBJECT_ID":"2022-111AB","OBJECT_TYPE":"PAYLOAD","OBJECT_NAME":"STARLINK-4712","PERIAPSIS":"538.977","TIME_SYSTEM":"UTC"},{"OBJECT_ID":"2022-111AC","TLE_LINE2":"2 53799  53.2145 193.5744 0001210  83.4040 276.7090 15.08836398 38802","SEMIMAJOR_AXIS":"6917.891","PERIAPSIS":"538.919","TIME_SYSTEM":"UTC","OBJECT_NAME":"STARLINK-4710","OBJECT_TYPE":"PAYLOAD","REV_AT_EPOCH":"3880","MEAN_ANOMALY":"276.7090","CENTER_NAME":"EARTH","ECCENTRICITY":"0.00012100","INCLINATION":"53.2145","COUNTRY_CODE":"US","ARG_OF_PERICENTER":"83.4040","TLE_LINE1":"1 53799U 22111AC  23137.87534950  .00000025  00000-0  19675-4 0  9996","BSTAR":"0.00001967500000","EPOCH":"2023-05-17T21:00:30.196800","EPHEMERIS_TYPE":"0","NORAD_CAT_ID":"53799","REF_FRAME":"TEME","MEAN_ELEMENT_THEORY":"SGP4","ELEMENT_SET_NO":"999","APOAPSIS":"540.593","MEAN_MOTION_DOT":"0.00000025","MEAN_MOTION":"15.08836398","FILE":"3910633","RA_OF_ASC_NODE":"193.5744","DECAY_DATE":null,"RCS_SIZE":"LARGE","LAUNCH_DATE":"2022-09-11","PERIOD":"95.438","MEAN_MOTION_DDOT":"0.0000000000000","GP_ID":"232043957","CLASSIFICATION_TYPE":"U","SITE":"AFETR"},{"MEAN_MOTION_DOT":"0.00000059","MEAN_MOTION":"15.08839872","FILE":"3910633","RCS_SIZE":"LARGE","DECAY_DATE":null,"RA_OF_ASC_NODE":"193.5981","LAUNCH_DATE":"2022-09-11","PERIOD":"95.438","GP_ID":"232045207","MEAN_MOTION_DDOT":"0.0000000000000","CLASSIFICATION_TYPE":"U","SITE":"AFETR","TLE_LINE2":"2 53800  53.2153 193.5981 0001171  82.6578 277.4547 15.08839872 38805","SEMIMAJOR_AXIS":"6917.881","OBJECT_ID":"2022-111AD","OBJECT_NAME":"STARLINK-4720","TIME_SYSTEM":"UTC","PERIAPSIS":"538.936","OBJECT_TYPE":"PAYLOAD","CENTER_NAME":"EARTH","REV_AT_EPOCH":"3880","MEAN_ANOMALY":"277.4547","INCLINATION":"53.2153","ECCENTRICITY":"0.00011710","COUNTRY_CODE":"US","ARG_OF_PERICENTER":"82.6578","EPHEMERIS_TYPE":"0","EPOCH":"2023-05-17T21:05:48.215328","BSTAR":"0.00002181900000","TLE_LINE1":"1 53800U 22111AD  23137.87903027  .00000059  00000-0  21819-4 0  9994","REF_FRAME":"TEME","NORAD_CAT_ID":"53800","MEAN_ELEMENT_THEORY":"SGP4","ELEMENT_SET_NO":"999","APOAPSIS":"540.556"},{"CLASSIFICATION_TYPE":"U","SITE":"AFETR","PERIOD":"95.438","MEAN_MOTION_DDOT":"0.0000000000000","GP_ID":"232044958","LAUNCH_DATE":"2022-09-11","RCS_SIZE":"LARGE","DECAY_DATE":null,"RA_OF_ASC_NODE":"193.5314","FILE":"3910633","MEAN_MOTION":"15.08837514","MEAN_MOTION_DOT":"0.00000683","APOAPSIS":"540.420","ELEMENT_SET_NO":"999","MEAN_ELEMENT_THEORY":"SGP4","EPHEMERIS_TYPE":"0","EPOCH":"2023-05-17T20:49:53.326848","TLE_LINE1":"1 53801U 22111AE  23137.86797832  .00000683  00000-0  60980-4 0  9994","BSTAR":"0.00006098000000","NORAD_CAT_ID":"53801","REF_FRAME":"TEME","INCLINATION":"53.2153","ECCENTRICITY":"0.00009640","ARG_OF_PERICENTER":"90.8748","COUNTRY_CODE":"US","CENTER_NAME":"EARTH","REV_AT_EPOCH":"3880","MEAN_ANOMALY":"269.2355","OBJECT_NAME":"STARLINK-4715","PERIAPSIS":"539.086","TIME_SYSTEM":"UTC","OBJECT_TYPE":"PAYLOAD","SEMIMAJOR_AXIS":"6917.888","TLE_LINE2":"2 53801  53.2153 193.5314 0000964  90.8748 269.2355 15.08837514 38802","OBJECT_ID":"2022-111AE"}];
